{
  "norad_id": 63679,
  "name": "STARLINK-33850",
  "history": [
    {
      "epoch": "2026-03-28T22:25:43.365216Z",
      "apogee_km": 484.3661526593414,
      "perigee_km": 481.5297801342331,
      "latitude_deg": 9.6590720745815e-06,
      "longitude_deg": 119.418371465169,
      "height_km": 482.69686195382246,
      "semi_major_axis_km": 6861.084966396787,
      "eccentricity": 0.0002067,
      "inclination_deg": 43.0043,
      "raan_deg": 282.1969,
      "arg_perigee_deg": 271.1639,
      "mean_anomaly_deg": 88.8976,
      "mean_motion_rev_day": 15.27613774
    }
  ]
}