{"fetched_at":"2026-03-29T16:36:15Z","count":15609,"tles":[{"name":"STARLINK-33850","line1":"1 63679U 25085R   26087.93452969  .00028304  00000+0  10331-2 0  9997","line2":"2 63679  43.0043 282.1969 0002067 271.1639  88.8976 15.27613774 51801","category":"Starlink"}]}